{
  "norad_id": 57943,
  "name": "STARLINK-30456",
  "history": [
    {
      "epoch": "2026-03-28T20:28:29.100576",
      "apogee_km": 475.5027762468262,
      "perigee_km": 474.9246275816131,
      "latitude_deg": 12.944184138141768,
      "longitude_deg": 56.19900064007379,
      "semi_major_axis_km": 6853.35070191422,
      "eccentricity": 4.218e-05,
      "inclination_deg": 53.1593,
      "raan_deg": 295.4617,
      "arg_perigee_deg": 100.2643,
      "mean_anomaly_deg": 259.8405,
      "mean_motion_rev_day": 15.30200458
    }
  ]
}